start=new Date('2022-12-24T00:00:00.000Z').valueOf();
sats=[{"MEAN_MOTION_DOT":"0.00004257","TLE_LINE2":"2 45713  53.0569 278.8570 0001548  81.2338 278.8826 15.06420480142187","CLASSIFICATION_TYPE":"U","FILE":"3720302","OBJECT_TYPE":"PAYLOAD","PERIAPSIS":"546.079","COUNTRY_CODE":"US","EPOCH":"2022-12-23T11:33:07.235136","RCS_SIZE":"LARGE","TLE_LINE1":"1 45713U 20035BJ  22357.48133374  .00004257  00000-0  30433-3 0  9996","OBJECT_NAME":"STARLINK-1436","LAUNCH_DATE":"2020-06-04","MEAN_ANOMALY":"278.8826","OBJECT_ID":"2020-035BJ","SITE":"AFETR","SEMIMAJOR_AXIS":"6925.286","EPHEMERIS_TYPE":"0","NORAD_CAT_ID":"45713","REF_FRAME":"TEME","DECAY_DATE":null,"INCLINATION":"53.0569","APOAPSIS":"548.223","ECCENTRICITY":"0.00015480","ELEMENT_SET_NO":"999","MEAN_MOTION":"15.06420480","GP_ID":"221272758","CENTER_NAME":"EARTH","TIME_SYSTEM":"UTC","PERIOD":"95.591","BSTAR":"0.00030433000000","REV_AT_EPOCH":"14218","MEAN_ELEMENT_THEORY":"SGP4","MEAN_MOTION_DDOT":"0.0000000000000","ARG_OF_PERICENTER":"81.2338","RA_OF_ASC_NODE":"278.8570"},{"MEAN_ANOMALY":"287.9348","LAUNCH_DATE":"2020-06-04","OBJECT_NAME":"STARLINK-1437","SEMIMAJOR_AXIS":"6925.391","SITE":"AFETR","OBJECT_ID":"2020-035BK","CLASSIFICATION_TYPE":"U","TLE_LINE2":"2 45714  53.0553 258.9160 0001491  72.1803 287.9348 15.06386043142476","MEAN_MOTION_DOT":"0.00001749","TLE_LINE1":"1 45714U 20035BK  22357.47212581  .00001749  00000-0  13635-3 0  9992","EPOCH":"2022-12-23T11:19:51.669984","RCS_SIZE":"LARGE","COUNTRY_CODE":"US","OBJECT_TYPE":"PAYLOAD","PERIAPSIS":"546.224","FILE":"3720302","BSTAR":"0.00013635000000","PERIOD":"95.593","CENTER_NAME":"EARTH","TIME_SYSTEM":"UTC","RA_OF_ASC_NODE":"258.9160","ARG_OF_PERICENTER":"72.1803","MEAN_MOTION_DDOT":"0.0000000000000","MEAN_ELEMENT_THEORY":"SGP4","REV_AT_EPOCH":"14247","INCLINATION":"53.0553","DECAY_DATE":null,"REF_FRAME":"TEME","EPHEMERIS_TYPE":"0","NORAD_CAT_ID":"45714","GP_ID":"221273005","ELEMENT_SET_NO":"999","MEAN_MOTION":"15.06386043","ECCENTRICITY":"0.00014910","APOAPSIS":"548.289"},{"MEAN_MOTION_DDOT":"0.0000000000000","MEAN_ELEMENT_THEORY":"SGP4","REV_AT_EPOCH":"13955","RA_OF_ASC_NODE":"97.9614","ARG_OF_PERICENTER":"49.5316","PERIOD":"95.593","CENTER_NAME":"EARTH","TIME_SYSTEM":"UTC","BSTAR":"0.00008448000000","MEAN_MOTION":"15.06392558","ELEMENT_SET_NO":"999","ECCENTRICITY":"0.00019540","APOAPSIS":"548.590","GP_ID":"221303133","REF_FRAME":"TEME","NORAD_CAT_ID":"45730","EPHEMERIS_TYPE":"0","INCLINATION":"53.0539","DECAY_DATE":null,"OBJECT_ID":"2020-038A","SITE":"AFETR","SEMIMAJOR_AXIS":"6925.371","LAUNCH_DATE":"2020-06-13","OBJECT_NAME":"STARLINK-1461","MEAN_ANOMALY":"310.5843","PERIAPSIS":"545.883","OBJECT_TYPE":"PAYLOAD","FILE":"3720518","TLE_LINE1":"1 45730U 20038A   22357.68222128  .00000977  00000-0  84480-4 0  9993","RCS_SIZE":"LARGE","EPOCH":"2022-12-23T16:22:23.918592","COUNTRY_CODE":"US","TLE_LINE2":"2 45730  53.0539  97.9614 0001954  49.5316 310.5843 15.06392558139550","MEAN_MOTION_DOT":"0.00000977","CLASSIFICATION_TYPE":"U"},{"LAUNCH_DATE":"2020-06-13","OBJECT_NAME":"STARLINK-1465","MEAN_ANOMALY":"317.8121","OBJECT_ID":"2020-038B","SEMIMAJOR_AXIS":"6925.344","SITE":"AFETR","TLE_LINE2":"2 45731  53.0551  97.6102 0001921  42.3015 317.8121 15.06401564139552","MEAN_MOTION_DOT":"0.00007048","CLASSIFICATION_TYPE":"U","OBJECT_TYPE":"PAYLOAD","PERIAPSIS":"545.878","FILE":"3720518","TLE_LINE1":"1 45731U 20038B   22357.76331699  .00007048  00000-0  49154-3 0  9991","RCS_SIZE":"LARGE","EPOCH":"2022-12-23T18:19:10.587936","COUNTRY_CODE":"US","PERIOD":"95.592","TIME_SYSTEM":"UTC","CENTER_NAME":"EARTH","BSTAR":"0.00049154000000","MEAN_MOTION_DDOT":"0.0000000000000","MEAN_ELEMENT_THEORY":"SGP4","REV_AT_EPOCH":"13955","RA_OF_ASC_NODE":"97.6102","ARG_OF_PERICENTER":"42.3015","REF_FRAME":"TEME","EPHEMERIS_TYPE":"0","NORAD_CAT_ID":"45731","INCLINATION":"53.0551","DECAY_DATE":null,"MEAN_MOTION":"15.06401564","ELEMENT_SET_NO":"999","ECCENTRICITY":"0.00019210","APOAPSIS":"548.539","GP_ID":"221303383"},{"INCLINATION":"53.0556","DECAY_DATE":null,"EPHEMERIS_TYPE":"0","NORAD_CAT_ID":"45732","REF_FRAME":"TEME","GP_ID":"221303612","MEAN_MOTION":"15.06405821","ELEMENT_SET_NO":"999","APOAPSIS":"548.518","ECCENTRICITY":"0.00019090","BSTAR":"0.00031888000000","PERIOD":"95.592","TIME_SYSTEM":"UTC","CENTER_NAME":"EARTH","RA_OF_ASC_NODE":"97.6627","ARG_OF_PERICENTER":"47.3395","MEAN_ELEMENT_THEORY":"SGP4","MEAN_MOTION_DDOT":"0.0000000000000","REV_AT_EPOCH":"13955","CLASSIFICATION_TYPE":"U","TLE_LINE2":"2 45732  53.0556  97.6627 0001909  47.3395 312.7754 15.06405821139558","MEAN_MOTION_DOT":"0.00004472","TLE_LINE1":"1 45732U 20038C   22357.75225353  .00004472  00000-0  31888-3 0  9993","COUNTRY_CODE":"US","RCS_SIZE":"LARGE","EPOCH":"2022-12-23T18:03:14.704992","OBJECT_TYPE":"PAYLOAD","PERIAPSIS":"545.874","FILE":"3720518","MEAN_ANOMALY":"312.7754","OBJECT_NAME":"STARLINK-1466","LAUNCH_DATE":"2020-06-13","SITE":"AFETR","SEMIMAJOR_AXIS":"6925.331","OBJECT_ID":"2020-038C"},{"TLE_LINE1":"1 45733U 20038D   22357.54983937  .00021004  00000-0  12616-2 0  9997","RCS_SIZE":"LARGE","EPOCH":"2022-12-23T13:11:46.121568","COUNTRY_CODE":"US","OBJECT_TYPE":"PAYLOAD","PERIAPSIS":"532.914","FILE":"3720413","CLASSIFICATION_TYPE":"U","TLE_LINE2":"2 45733  53.0537  96.3436 0000914 160.8893 199.2132 15.10870586140662","MEAN_MOTION_DOT":"0.00021004","SITE":"AFETR","SEMIMAJOR_AXIS":"6911.681","OBJECT_ID":"2020-038D","MEAN_ANOMALY":"199.2132","LAUNCH_DATE":"2020-06-13","OBJECT_NAME":"STARLINK-1467","GP_ID":"221281534","ELEMENT_SET_NO":"999","MEAN_MOTION":"15.10870586","ECCENTRICITY":"0.00009140","APOAPSIS":"534.177","INCLINATION":"53.0537","DECAY_DATE":null,"REF_FRAME":"TEME","EPHEMERIS_TYPE":"0","NORAD_CAT_ID":"45733","RA_OF_ASC_NODE":"96.3436","ARG_OF_PERICENTER":"160.8893","MEAN_MOTION_DDOT":"0.0000000000000","MEAN_ELEMENT_THEORY":"SGP4","REV_AT_EPOCH":"14066","BSTAR":"0.00126160000000","PERIOD":"95.309","CENTER_NAME":"EARTH","TIME_SYSTEM":"UTC"},{"DECAY_DATE":null,"INCLINATION":"53.0550","REF_FRAME":"TEME","EPHEMERIS_TYPE":"0","NORAD_CAT_ID":"45734","GP_ID":"221302633","ECCENTRICITY":"0.00011090","APOAPSIS":"536.991","MEAN_MOTION":"15.09992694","ELEMENT_SET_NO":"999","BSTAR":"0.00113580000000","TIME_SYSTEM":"UTC","CENTER_NAME":"EARTH","PERIOD":"95.365","ARG_OF_PERICENTER":"147.2456","RA_OF_ASC_NODE":"96.8584","REV_AT_EPOCH":"13955","MEAN_MOTION_DDOT":"0.0000000000000","MEAN_ELEMENT_THEORY":"SGP4","CLASSIFICATION_TYPE":"U","MEAN_MOTION_DOT":"0.00018417","TLE_LINE2":"2 45734  53.0550  96.8584 0001109 147.2456 212.8604 15.09992694139553","EPOCH":"2022-12-23T14:21:45.616032","RCS_SIZE":"LARGE","COUNTRY_CODE":"US","TLE_LINE1":"1 45734U 20038E   22357.59844463  .00018417  00000-0  11358-2 0  9999","FILE":"3720518","OBJECT_TYPE":"PAYLOAD","PERIAPSIS":"535.458","MEAN_ANOMALY":"212.8604","LAUNCH_DATE":"2020-06-13","OBJECT_NAME":"STARLINK-1468","SEMIMAJOR_AXIS":"6914.359","SITE":"AFETR","OBJECT_ID":"2020-038E"},{"MEAN_MOTION":"15.06385984","ELEMENT_SET_NO":"999","APOAPSIS":"548.251","ECCENTRICITY":"0.00014360","GP_ID":"221272015","EPHEMERIS_TYPE":"0","NORAD_CAT_ID":"45735","REF_FRAME":"TEME","INCLINATION":"53.0542","DECAY_DATE":null,"MEAN_ELEMENT_THEORY":"SGP4","MEAN_MOTION_DDOT":"0.0000000000000","REV_AT_EPOCH":"13952","RA_OF_ASC_NODE":"98.4333","ARG_OF_PERICENTER":"60.8023","PERIOD":"95.593","TIME_SYSTEM":"UTC","CENTER_NAME":"EARTH","BSTAR":"0.00001063100000","OBJECT_TYPE":"PAYLOAD","PERIAPSIS":"546.262","FILE":"3720302","TLE_LINE1":"1 45735U 20038F   22357.57901751 -.00000123  00000-0  10631-4 0  9993","COUNTRY_CODE":"US","EPOCH":"2022-12-23T13:53:47.112864","RCS_SIZE":"LARGE","TLE_LINE2":"2 45735  53.0542  98.4333 0001436  60.8023 299.3109 15.06385984139520","MEAN_MOTION_DOT":"-0.00000123","CLASSIFICATION_TYPE":"U","OBJECT_ID":"2020-038F","SEMIMAJOR_AXIS":"6925.392","SITE":"AFETR","OBJECT_NAME":"STARLINK-1471","LAUNCH_DATE":"2020-06-13","MEAN_ANOMALY":"299.3109"},{"CENTER_NAME":"EARTH","TIME_SYSTEM":"UTC","PERIOD":"93.270","BSTAR":"0.00041171000000","REV_AT_EPOCH":"14061","MEAN_MOTION_DDOT":"0.0000000000000","MEAN_ELEMENT_THEORY":"SGP4","ARG_OF_PERICENTER":"172.3335","RA_OF_ASC_NODE":"23.6531","REF_FRAME":"TEME","NORAD_CAT_ID":"45736","EPHEMERIS_TYPE":"0","DECAY_DATE":null,"INCLINATION":"53.0615","ECCENTRICITY":"0.00015650","APOAPSIS":"435.671","MEAN_MOTION":"15.43903111","ELEMENT_SET_NO":"999","GP_ID":"221304112","LAUNCH_DATE":"2020-06-13","OBJECT_NAME":"STARLINK-1472","MEAN_ANOMALY":"187.7694","OBJECT_ID":"2020-038G","SITE":"AFETR","SEMIMAJOR_AXIS":"6812.740","MEAN_MOTION_DOT":"0.00018626","TLE_LINE2":"2 45736  53.0615  23.6531 0001565 172.3335 187.7694 15.43903111140610","CLASSIFICATION_TYPE":"U","FILE":"3720518","OBJECT_TYPE":"PAYLOAD","PERIAPSIS":"433.539","RCS_SIZE":"LARGE","EPOCH":"2022-12-23T19:31:36.696288","COUNTRY_CODE":"US","TLE_LINE1":"1 45736U 20038G   22357.81361917  .00018626  00000-0  41171-3 0  9993"},{"CLASSIFICATION_TYPE":"U","MEAN_MOTION_DOT":"0.00001102","TLE_LINE2":"2 45738  53.0552  98.1923 0002029  45.0479 315.0675 15.06380277139530","COUNTRY_CODE":"US","RCS_SIZE":"LARGE","EPOCH":"2022-12-23T15:13:24.721824","TLE_LINE1":"1 45738U 20038J   22357.63431391  .00001102  00000-0  92952-4 0  9994","FILE":"3720518","PERIAPSIS":"545.869","OBJECT_TYPE":"PAYLOAD","MEAN_ANOMALY":"315.0675","OBJECT_NAME":"STARLINK-1474","LAUNCH_DATE":"2020-06-13","SEMIMAJOR_AXIS":"6925.409","SITE":"AFETR","OBJECT_ID":"2020-038J","DECAY_DATE":null,"INCLINATION":"53.0552","NORAD_CAT_ID":"45738","EPHEMERIS_TYPE":"0","REF_FRAME":"TEME","GP_ID":"221302884","APOAPSIS":"548.679","ECCENTRICITY":"0.00020290","MEAN_MOTION":"15.06380277","ELEMENT_SET_NO":"999","BSTAR":"0.00009295200000","CENTER_NAME":"EARTH","TIME_SYSTEM":"UTC","PERIOD":"95.593","ARG_OF_PERICENTER":"45.0479","RA_OF_ASC_NODE":"98.1923","REV_AT_EPOCH":"13953","MEAN_ELEMENT_THEORY":"SGP4","MEAN_MOTION_DDOT":"0.0000000000000"}];
